ONEWEB-0501             
1 54119U 22138G   23278.85112029 -.00000299  00000+0 -78002-3 0  9997
2 54119  87.9223 141.0846 0002335  75.8720 284.2672 13.19725393 46845
ONEWEB-0502             
1 54120U 22138H   23279.06436126  .00000070  00000+0  14134-3 0  9991
2 54120  87.9222 141.0351 0002116  80.0614 280.0757 13.19724844 47764
ONEWEB-0503             
1 54121U 22138J   23278.90166522  .00000166  00000+0  38230-3 0  9993
2 54121  87.9221 141.0754 0001630  93.2131 266.9188 13.19723934 46861
ONEWEB-0504             
1 54122U 22138K   23278.88903817  .00000093  00000+0  19873-3 0  9998
2 54122  87.9226 141.0779 0002124  86.5213 273.6163 13.19725720 46873
ONEWEB-0505             
1 54123U 22138L   23279.11333014  .00000098  00000+0  21249-3 0  9997
2 54123  87.9224 141.0319 0002096  88.1256 272.0117 13.19725801 47755
ONEWEB-0506             
1 54124U 22138M   23278.86060978  .00000122  00000+0  27316-3 0  9994
2 54124  87.9223 141.0786 0002056  78.1637 281.9727 13.19726032 47710
ONEWEB-0507             
1 54125U 22138N   23278.88113875  .00000051  00000+0  94365-4 0  9992
2 54125  87.9171 141.0921 0002029  76.8294 283.3064 13.19724364 47769
ONEWEB-0508             
1 54126U 22138P   23278.87798958  .00000935  00000+0  23043-2 0  9997
2 54126  87.9221 141.0821 0002346  76.3844 283.7549 13.19719564 46872
